{
  "schema": "int-temerity-real-tle-snapshot/v1",
  "source": "celestrak",
  "group": "STARLINK",
  "format": "celestrak-gp-json",
  "source_url": "https://celestrak.org/NORAD/elements/gp.php?NAME=STARLINK&FORMAT=JSON",
  "downloaded_at": "2026-06-26T09:50:33.467Z",
  "generated_at": "2026-06-26T09:50:44.363Z",
  "fingerprint": "77a8ac15",
  "shell_id": "starlink-real-43deg-490km",
  "catalog_count": 10658,
  "shell_count": 3264,
  "selected_count": 1584,
  "mean_altitude_km": 490.2,
  "mean_inclination_deg": 43.0017,
  "mean_mean_motion_rev_per_day": 15.27576648,
  "layout": {
    "planes": 72,
    "satellites_per_plane": 22,
    "selection_strategy": "largest-shell-raan-clusters-even-slot-sampling",
    "raan_cluster_threshold_deg": 1.5
  },
  "satellites": [
    {
      "satellite_id": "P64-S20",
      "norad_id": 67454,
      "satellite_name": "STARLINK-36517",
      "cospar_id": "2026-008K",
      "shell_id": "starlink-real-43deg-490km",
      "plane_id": 63,
      "slot_id": 19,
      "epoch": "2026-06-25T17:39:30.883104",
      "inclination": 42.9989,
      "raan": 315.294,
      "eccentricity": 0.0000855,
      "argument_of_perigee": 320.2524000000001,
      "mean_anomaly": 39.82650000000001,
      "mean_motion": 15.27620558,
      "bstar": 0.00082759,
      "status": "active",
      "raw_omm": {
        "OBJECT_NAME": "STARLINK-36517",
        "OBJECT_ID": "2026-008K",
        "EPOCH": "2026-06-25T17:39:30.883104",
        "MEAN_MOTION": 15.27620558,
        "ECCENTRICITY": 0.0000855,
        "INCLINATION": 42.9989,
        "RA_OF_ASC_NODE": 315.294,
        "ARG_OF_PERICENTER": 320.2524,
        "MEAN_ANOMALY": 39.8265,
        "EPHEMERIS_TYPE": 0,
        "CLASSIFICATION_TYPE": "U",
        "NORAD_CAT_ID": 67454,
        "ELEMENT_SET_NO": 999,
        "REV_AT_EPOCH": 2609,
        "BSTAR": 0.00082759,
        "MEAN_MOTION_DOT": 0.00022609,
        "MEAN_MOTION_DDOT": 0
      },
      "source": "celestrak",
      "source_url": "https://celestrak.org/NORAD/elements/gp.php?NAME=STARLINK&FORMAT=JSON",
      "catalog_fingerprint": "77a8ac15"
    },
    {
      "satellite_id": "P64-S21",
      "norad_id": 67445,
      "satellite_name": "STARLINK-36542",
      "cospar_id": "2026-008A",
      "shell_id": "starlink-real-43deg-490km",
      "plane_id": 63,
      "slot_id": 20,
      "epoch": "2026-06-25T16:09:03.820896",
      "inclination": 42.9994,
      "raan": 315.6815,
      "eccentricity": 0.0000249,
      "argument_of_perigee": 229.73199999999997,
      "mean_anomaly": 130.35090000000002,
      "mean_motion": 15.27610413,
      "bstar": 0.0012634,
      "status": "active",
      "raw_omm": {
        "OBJECT_NAME": "STARLINK-36542",
        "OBJECT_ID": "2026-008A",
        "EPOCH": "2026-06-25T16:09:03.820896",
        "MEAN_MOTION": 15.27610413,
        "ECCENTRICITY": 0.0000249,
        "INCLINATION": 42.9994,
        "RA_OF_ASC_NODE": 315.6815,
        "ARG_OF_PERICENTER": 229.732,
        "MEAN_ANOMALY": 130.3509,
        "EPHEMERIS_TYPE": 0,
        "CLASSIFICATION_TYPE": "U",
        "NORAD_CAT_ID": 67445,
        "ELEMENT_SET_NO": 999,
        "REV_AT_EPOCH": 2608,
        "BSTAR": 0.0012634,
        "MEAN_MOTION_DOT": 0.000347,
        "MEAN_MOTION_DDOT": 0
      },
      "source": "celestrak",
      "source_url": "https://celestrak.org/NORAD/elements/gp.php?NAME=STARLINK&FORMAT=JSON",
      "catalog_fingerprint": "77a8ac15"
    },
    {
      "satellite_id": "P64-S22",
      "norad_id": 62101,
      "satellite_name": "STARLINK-33545",
      "cospar_id": "2024-220P",
      "shell_id": "starlink-real-43deg-490km",
      "plane_id": 63,
      "slot_id": 21,
      "epoch": "2026-06-25T20:03:28.675584",
      "inclination": 43.0003,
      "raan": 314.5422,
      "eccentricity": 0.0000769,
      "argument_of_perigee": 22.28359999999998,
      "mean_anomaly": 337.8048,
      "mean_motion": 15.276067,
      "bstar": 0.00074803,
      "status": "active",
      "raw_omm": {
        "OBJECT_NAME": "STARLINK-33545",
        "OBJECT_ID": "2024-220P",
        "EPOCH": "2026-06-25T20:03:28.675584",
        "MEAN_MOTION": 15.276067,
        "ECCENTRICITY": 0.0000769,
        "INCLINATION": 43.0003,
        "RA_OF_ASC_NODE": 314.5422,
        "ARG_OF_PERICENTER": 22.2836,
        "MEAN_ANOMALY": 337.8048,
        "EPHEMERIS_TYPE": 0,
        "CLASSIFICATION_TYPE": "U",
        "NORAD_CAT_ID": 62101,
        "ELEMENT_SET_NO": 999,
        "REV_AT_EPOCH": 8956,
        "BSTAR": 0.00074803,
        "MEAN_MOTION_DOT": 0.00020396,
        "MEAN_MOTION_DDOT": 0
      },
      "source": "celestrak",
      "source_url": "https://celestrak.org/NORAD/elements/gp.php?NAME=STARLINK&FORMAT=JSON",
      "catalog_fingerprint": "77a8ac15"
    },
    {
      "satellite_id": "P65-S01",
      "norad_id": 56304,
      "satellite_name": "STARLINK-30099",
      "cospar_id": "2023-056U",
      "shell_id": "starlink-real-43deg-490km",
      "plane_id": 64,
      "slot_id": 0,
      "epoch": "2026-06-25T20:19:21.705600",
      "inclination": 43.0052,
      "raan": 317.8109999999999,
      "eccentricity": 0.0002024,
      "argument_of_perigee": 255.7418,
      "mean_anomaly": 104.3209,
      "mean_motion": 15.27579599,
      "bstar": 0.0000076138,
      "status": "active",
      "raw_omm": {
        "OBJECT_NAME": "STARLINK-30099",
        "OBJECT_ID": "2023-056U",
        "EPOCH": "2026-06-25T20:19:21.705600",
        "MEAN_MOTION": 15.27579599,
        "ECCENTRICITY": 0.0002024,
        "INCLINATION": 43.0052,
        "RA_OF_ASC_NODE": 317.811,
        "ARG_OF_PERICENTER": 255.7418,
        "MEAN_ANOMALY": 104.3209,
        "EPHEMERIS_TYPE": 0,
        "CLASSIFICATION_TYPE": "U",
        "NORAD_CAT_ID": 56304,
        "ELEMENT_SET_NO": 999,
        "REV_AT_EPOCH": 17664,
        "BSTAR": 0.0000076138,
        "MEAN_MOTION_DOT": -5.3e-7,
        "MEAN_MOTION_DDOT": 0
      },
      "source": "celestrak",
      "source_url": "https://celestrak.org/NORAD/elements/gp.php?NAME=STARLINK&FORMAT=JSON",
      "catalog_fingerprint": "77a8ac15"
    },
    {
      "satellite_id": "P65-S02",
      "norad_id": 56288,
      "satellite_name": "STARLINK-30106",
      "cospar_id": "2023-056C",
      "shell_id": "starlink-real-43deg-490km",
      "plane_id": 64,
      "slot_id": 1,
      "epoch": "2026-06-25T19:05:34.831392",
      "inclination": 43.0039,
      "raan": 318.38329999999996,
      "eccentricity": 0.0001873,
      "argument_of_perigee": 270.5851,
      "mean_anomaly": 89.47860000000003,
      "mean_motion": 15.27585805,
      "bstar": 0.000038815,
      "status": "active",
      "raw_omm": {
        "OBJECT_NAME": "STARLINK-30106",
        "OBJECT_ID": "2023-056C",
        "EPOCH": "2026-06-25T19:05:34.831392",
        "MEAN_MOTION": 15.27585805,
        "ECCENTRICITY": 0.0001873,
        "INCLINATION": 43.0039,
        "RA_OF_ASC_NODE": 318.3833,
        "ARG_OF_PERICENTER": 270.5851,
        "MEAN_ANOMALY": 89.4786,
        "EPHEMERIS_TYPE": 0,
        "CLASSIFICATION_TYPE": "U",
        "NORAD_CAT_ID": 56288,
        "ELEMENT_SET_NO": 999,
        "REV_AT_EPOCH": 17657,
        "BSTAR": 0.000038815,
        "MEAN_MOTION_DOT": 0.00000806,
        "MEAN_MOTION_DDOT": 0
      },
      "source": "celestrak",
      "source_url": "https://celestrak.org/NORAD/elements/gp.php?NAME=STARLINK&FORMAT=JSON",
      "catalog_fingerprint": "77a8ac15"
    },
    {
      "satellite_id": "P65-S03",
      "norad_id": 56290,
      "satellite_name": "STARLINK-30103",
      "cospar_id": "2023-056E",
      "shell_id": "starlink-real-43deg-490km",
      "plane_id": 64,
      "slot_id": 2,
      "epoch": "2026-06-25T17:36:58.483008",
      "inclination": 43.0022,
      "raan": 318.77160000000003,
      "eccentricity": 0.0001707,
      "argument_of_perigee": 268.9438,
      "mean_anomaly": 91.12180000000001,
      "mean_motion": 15.27583984,
      "bstar": 0.000046272,
      "status": "active",
      "raw_omm": {
        "OBJECT_NAME": "STARLINK-30103",
        "OBJECT_ID": "2023-056E",
        "EPOCH": "2026-06-25T17:36:58.483008",
        "MEAN_MOTION": 15.27583984,
        "ECCENTRICITY": 0.0001707,
        "INCLINATION": 43.0022,
        "RA_OF_ASC_NODE": 318.7716,
        "ARG_OF_PERICENTER": 268.9438,
        "MEAN_ANOMALY": 91.1218,
        "EPHEMERIS_TYPE": 0,
        "CLASSIFICATION_TYPE": "U",
        "NORAD_CAT_ID": 56290,
        "ELEMENT_SET_NO": 999,
        "REV_AT_EPOCH": 17656,
        "BSTAR": 0.000046272,
        "MEAN_MOTION_DOT": 0.00001011,
        "MEAN_MOTION_DDOT": 0
      },
      "source": "celestrak",
      "source_url": "https://celestrak.org/NORAD/elements/gp.php?NAME=STARLINK&FORMAT=JSON",
      "catalog_fingerprint": "77a8ac15"
    }
  ]
}